[{"OBJECT_NAME":"OBJECT F","OBJECT_ID":"2024-205F","EPOCH":"2026-03-09T22:13:48.364608","MEAN_MOTION":15.17186787,"ECCENTRICITY":0.00083826,"INCLINATION":97.4176,"RA_OF_ASC_NODE":142.673,"ARG_OF_PERICENTER":234.765,"MEAN_ANOMALY":125.28,"EPHEMERIS_TYPE":0,"CLASSIFICATION_TYPE":"U","NORAD_CAT_ID":61899,"ELEMENT_SET_NO":999,"REV_AT_EPOCH":7324,"BSTAR":0.00063234837,"MEAN_MOTION_DOT":0.00012518,"MEAN_MOTION_DDOT":0},{"OBJECT_NAME":"TIANYI F","OBJECT_ID":"2025-103F","EPOCH":"2026-03-09T23:54:55.522944","MEAN_MOTION":15.18246358,"ECCENTRICITY":0.00043161,"INCLINATION":97.388,"RA_OF_ASC_NODE":142.7834,"ARG_OF_PERICENTER":136.4512,"MEAN_ANOMALY":223.7064,"EPHEMERIS_TYPE":0,"CLASSIFICATION_TYPE":"U","NORAD_CAT_ID":64053,"ELEMENT_SET_NO":999,"REV_AT_EPOCH":4499,"BSTAR":0.00028443218,"MEAN_MOTION_DOT":5.759e-5,"MEAN_MOTION_DDOT":0}]
